{"type": "FeatureCollection", "features": [ {"type": "Feature", "properties": {"norad_id": 67141, "name": "KUIPER-00187", "group": "last-30-days", "lat": 51.70946336214932, "lon": 141.61929978995724, "alt_km": 448.6683414399231, "timestamp": "2025-12-26T18:39:31.001257+00:00", "meta": {"OBJECT_NAME": "KUIPER-00187", "OBJECT_ID": "2025-301J", "EPOCH": "2025-12-26T13:35:57.643296", "MEAN_MOTION": 15.35866319, "ECCENTRICITY": 0.0004351, "INCLINATION": 51.8716, "RA_OF_ASC_NODE": 58.4274, "ARG_OF_PERICENTER": 116.5736, "MEAN_ANOMALY": 243.5696, "EPHEMERIS_TYPE": 0, "CLASSIFICATION_TYPE": "U", "NORAD_CAT_ID": 67141, "ELEMENT_SET_NO": 999, "REV_AT_EPOCH": 249, "BSTAR": 0.00093981712, "MEAN_MOTION_DOT": 0.00033077, "MEAN_MOTION_DDOT": 0}, "tle": {"line1": "1 67141U 25301J   25360.56663939  .00033077  00000+0  93982-3 0  9996", "line2": "2 67141  51.8716  58.4274 0004351 116.5736 243.5696 15.35866319  2498"}}, "geometry": {"type": "Point", "coordinates": [141.61929978995724, 51.70946336214932]}}, {"type": "Feature", "properties": {"norad_id": 67142, "name": "KUIPER-00188", "group": "last-30-days", "lat": 38.45811011835532, "lon": 96.07975367282572, "alt_km": 455.47363432283873, "timestamp": "2025-12-26T18:39:31.001267+00:00", "meta": {"OBJECT_NAME": "KUIPER-00188", "OBJECT_ID": "2025-301K", "EPOCH": "2025-12-26T15:18:24.104736", "MEAN_MOTION": 15.34956781, "ECCENTRICITY": 0.00073744, "INCLINATION": 51.8696, "RA_OF_ASC_NODE": 58.1524, "ARG_OF_PERICENTER": 137.0938, "MEAN_ANOMALY": 223.0624, "EPHEMERIS_TYPE": 0, "CLASSIFICATION_TYPE": "U", "NORAD_CAT_ID": 67142, "ELEMENT_SET_NO": 999, "REV_AT_EPOCH": 250, "BSTAR": 0.00084104685, "MEAN_MOTION_DOT": 0.00028702, "MEAN_MOTION_DDOT": 0}, "tle": {"line1": "1 67142U 25301K   25360.63777899  .00028702  00000+0  84105-3 0  9992", "line2": "2 67142  51.8696  58.1524 0007374 137.0938 223.0624 15.34956781  2509"}}, "geometry": {"type": "Point", "coordinates": [96.07975367282572, 38.45811011835532]}}, {"type": "Feature", "properties": {"norad_id": 67143, "name": "KUIPER-00191", "group": "last-30-days", "lat": 43.52556166890579, "lon": 105.7191588235424, "alt_km": 453.0969840840853, "timestamp": "2025-12-26T18:39:31.001277+00:00", "meta": {"OBJECT_NAME": "KUIPER-00191", "OBJECT_ID": "2025-301L", "EPOCH": "2025-12-26T12:08:39.084288", "MEAN_MOTION": 15.35187778, "ECCENTRICITY": 0.00066506, "INCLINATION": 51.868, "RA_OF_ASC_NODE": 58.7716, "ARG_OF_PERICENTER": 133.7778, "MEAN_ANOMALY": 226.3759, "EPHEMERIS_TYPE": 0, "CLASSIFICATION_TYPE": "U", "NORAD_CAT_ID": 67143, "ELEMENT_SET_NO": 999, "REV_AT_EPOCH": 251, "BSTAR": 0.0011819205, "MEAN_MOTION_DOT": 0.00040852, "MEAN_MOTION_DDOT": 0}, "tle": {"line1": "1 67143U 25301L   25360.50600792  .00040852  00000+0  11819-2 0  9997", "line2": "2 67143  51.8680  58.7716 0006650 133.7778 226.3759 15.35187778  2512"}}, "geometry": {"type": "Point", "coordinates": [105.7191588235424, 43.52556166890579]}}, {"type": "Feature", "properties": {"norad_id": 67144, "name": "KUIPER-00196", "group": "last-30-days", "lat": 51.57852548497084, "lon": 155.43159039366466, "alt_km": 448.0491905144763, "timestamp": "2025-12-26T18:39:31.001287+00:00", "meta": {"OBJECT_NAME": "KUIPER-00196", "OBJECT_ID": "2025-301M", "EPOCH": "2025-12-26T13:33:46.577088", "MEAN_MOTION": 15.36059162, "ECCENTRICITY": 0.00038651, "INCLINATION": 51.8736, "RA_OF_ASC_NODE": 58.4142, "ARG_OF_PERICENTER": 101.5158, "MEAN_ANOMALY": 258.6262, "EPHEMERIS_TYPE": 0, "CLASSIFICATION_TYPE": "U", "NORAD_CAT_ID": 67144, "ELEMENT_SET_NO": 999, "REV_AT_EPOCH": 249, "BSTAR": 0.00084927224, "MEAN_MOTION_DOT": 0.00030026, "MEAN_MOTION_DDOT": 0}, "tle": {"line1": "1 67144U 25301M   25360.56512242  .00030026  00000+0  84927-3 0  9999", "line2": "2 67144  51.8736  58.4142 0003865 101.5158 258.6262 15.36059162  2495"}}, "geometry": {"type": "Point", "coordinates": [155.43159039366466, 51.57852548497084]}}, {"type": "Feature", "properties": {"norad_id": 67145, "name": "KUIPER-00204", "group": "last-30-days", "lat": 45.7640173391939, "lon": -176.42353355579945, "alt_km": 448.85972052401667, "timestamp": "2025-12-26T18:39:31.001299+00:00", "meta": {"OBJECT_NAME": "KUIPER-00204", "OBJECT_ID": "2025-301N", "EPOCH": "2025-12-26T15:02:30.144192", "MEAN_MOTION": 15.3657137, "ECCENTRICITY": 0.0002035, "INCLINATION": 51.8744, "RA_OF_ASC_NODE": 58.0703, "ARG_OF_PERICENTER": 77.8958, "MEAN_ANOMALY": 282.2256, "EPHEMERIS_TYPE": 0, "CLASSIFICATION_TYPE": "U", "NORAD_CAT_ID": 67145, "ELEMENT_SET_NO": 999, "REV_AT_EPOCH": 261, "BSTAR": 0.00079609852, "MEAN_MOTION_DOT": 0.00028584, "MEAN_MOTION_DDOT": 0}, "tle": {"line1": "1 67145U 25301N   25360.62673778  .00028584  00000+0  79610-3 0  9998", "line2": "2 67145  51.8744  58.0703 0002035  77.8958 282.2256 15.36571370  2615"}}, "geometry": {"type": "Point", "coordinates": [-176.42353355579945, 45.7640173391939]}}, {"type": "Feature", "properties": {"norad_id": 67146, "name": "KUIPER-00210", "group": "last-30-days", "lat": 17.81767130166434, "lon": 72.16612828518026, "alt_km": 466.0026196566414, "timestamp": "2025-12-26T18:39:31.001310+00:00", "meta": {"OBJECT_NAME": "KUIPER-00210", "OBJECT_ID": "2025-301P", "EPOCH": "2025-12-26T15:25:56.591904", "MEAN_MOTION": 15.34199961, "ECCENTRICITY": 0.00105946, "INCLINATION": 51.8601, "RA_OF_ASC_NODE": 58.1848, "ARG_OF_PERICENTER": 151.5196, "MEAN_ANOMALY": 208.637, "EPHEMERIS_TYPE": 0, "CLASSIFICATION_TYPE": "U", "NORAD_CAT_ID": 67146, "ELEMENT_SET_NO": 999, "REV_AT_EPOCH": 267, "BSTAR": 0.00088209815, "MEAN_MOTION_DOT": 0.00029428, "MEAN_MOTION_DDOT": 0}, "tle": {"line1": "1 67146U 25301P   25360.64301611  .00029428  00000+0  88210-3 0  9999", "line2": "2 67146  51.8601  58.1848 0010594 151.5196 208.6370 15.34199961  2677"}}, "geometry": {"type": "Point", "coordinates": [72.16612828518026, 17.81767130166434]}}, {"type": "Feature", "properties": {"norad_id": 67147, "name": "KUIPER-00221", "group": "last-30-days", "lat": 51.291677101663055, "lon": 135.96392872487235, "alt_km": 448.67655387003197, "timestamp": "2025-12-26T18:39:31.001319+00:00", "meta": {"OBJECT_NAME": "KUIPER-00221", "OBJECT_ID": "2025-301Q", "EPOCH": "2025-12-26T13:36:51.784992", "MEAN_MOTION": 15.357619, "ECCENTRICITY": 0.00050184, "INCLINATION": 51.8724, "RA_OF_ASC_NODE": 58.4309, "ARG_OF_PERICENTER": 114.1511, "MEAN_ANOMALY": 246, "EPHEMERIS_TYPE": 0, "CLASSIFICATION_TYPE": "U", "NORAD_CAT_ID": 67147, "ELEMENT_SET_NO": 999, "REV_AT_EPOCH": 249, "BSTAR": 0.00099577279, "MEAN_MOTION_DOT": 0.00034963, "MEAN_MOTION_DDOT": 0}, "tle": {"line1": "1 67147U 25301Q   25360.56726603  .00034963  00000+0  99577-3 0  9991", "line2": "2 67147  51.8724  58.4309 0005018 114.1511 246.0000 15.35761900  2495"}}, "geometry": {"type": "Point", "coordinates": [135.96392872487235, 51.291677101663055]}}, {"type": "Feature", "properties": {"norad_id": 67148, "name": "KUIPER-00232", "group": "last-30-days", "lat": 42.43340284594005, "lon": -168.55488492180206, "alt_km": 449.64066971730244, "timestamp": "2025-12-26T18:39:31.001330+00:00", "meta": {"OBJECT_NAME": "KUIPER-00232", "OBJECT_ID": "2025-301R", "EPOCH": "2025-12-26T13:27:10.377792", "MEAN_MOTION": 15.36722826, "ECCENTRICITY": 0.0001647, "INCLINATION": 51.8746, "RA_OF_ASC_NODE": 58.3815, "ARG_OF_PERICENTER": 50.5571, "MEAN_ANOMALY": 309.5561, "EPHEMERIS_TYPE": 0, "CLASSIFICATION_TYPE": "U", "NORAD_CAT_ID": 67148, "ELEMENT_SET_NO": 999, "REV_AT_EPOCH": 249, "BSTAR": 0.0005919398, "MEAN_MOTION_DOT": 0.00021238, "MEAN_MOTION_DDOT": 0}, "tle": {"line1": "1 67148U 25301R   25360.56053678  .00021238  00000+0  59194-3 0  9999", "line2": "2 67148  51.8746  58.3815 0001647  50.5571 309.5561 15.36722826  2496"}}, "geometry": {"type": "Point", "coordinates": [-168.55488492180206, 42.43340284594005]}}, {"type": "Feature", "properties": {"norad_id": 67149, "name": "KUIPER-00241", "group": "last-30-days", "lat": 50.035819722901, "lon": 167.78874409687026, "alt_km": 448.33524628673604, "timestamp": "2025-12-26T18:39:31.001339+00:00", "meta": {"OBJECT_NAME": "KUIPER-00241", "OBJECT_ID": "2025-301S", "EPOCH": "2025-12-26T13:31:44.941440", "MEAN_MOTION": 15.3627316, "ECCENTRICITY": 0.00028198, "INCLINATION": 51.8745, "RA_OF_ASC_NODE": 58.4011, "ARG_OF_PERICENTER": 98.3919, "MEAN_ANOMALY": 261.7387, "EPHEMERIS_TYPE": 0, "CLASSIFICATION_TYPE": "U", "NORAD_CAT_ID": 67149, "ELEMENT_SET_NO": 999, "REV_AT_EPOCH": 282, "BSTAR": 0.00058232928, "MEAN_MOTION_DOT": 0.00020582, "MEAN_MOTION_DDOT": 0}, "tle": {"line1": "1 67149U 25301S   25360.56371460  .00020582  00000+0  58233-3 0  9996", "line2": "2 67149  51.8745  58.4011 0002819  98.3919 261.7387 15.36273160  2827"}}, "geometry": {"type": "Point", "coordinates": [167.78874409687026, 50.035819722901]}}, {"type": "Feature", "properties": {"norad_id": 67150, "name": "KUIPER-00245", "group": "last-30-days", "lat": 50.61507067496341, "lon": 130.49748391970496, "alt_km": 449.51097586592005, "timestamp": "2025-12-26T18:39:31.001353+00:00", "meta": {"OBJECT_NAME": "KUIPER-00245", "OBJECT_ID": "2025-301T", "EPOCH": "2025-12-26T13:37:45.162912", "MEAN_MOTION": 15.35664172, "ECCENTRICITY": 0.00050166, "INCLINATION": 51.8731, "RA_OF_ASC_NODE": 58.4328, "ARG_OF_PERICENTER": 122.7177, "MEAN_ANOMALY": 237.4293, "EPHEMERIS_TYPE": 0, "CLASSIFICATION_TYPE": "U", "NORAD_CAT_ID": 67150, "ELEMENT_SET_NO": 999, "REV_AT_EPOCH": 249, "BSTAR": 0.00084747603, "MEAN_MOTION_DOT": 0.00029583, "MEAN_MOTION_DDOT": 0}, "tle": {"line1": "1 67150U 25301T   25360.56788383  .00029583  00000+0  84748-3 0  9994", "line2": "2 67150  51.8731  58.4328 0005016 122.7177 237.4293 15.35664172  2490"}}, "geometry": {"type": "Point", "coordinates": [130.49748391970496, 50.61507067496341]}}]}